[{"OBJECT_NAME":"METEOSAT-11 (MSG-4)","OBJECT_ID":"2015-034A","EPOCH":"2026-03-03T02:08:28.601952","MEAN_MOTION":1.00265683,"ECCENTRICITY":0.00018,"INCLINATION":2.9341,"RA_OF_ASC_NODE":71.6891,"ARG_OF_PERICENTER":270.8063,"MEAN_ANOMALY":219.9029,"EPHEMERIS_TYPE":0,"CLASSIFICATION_TYPE":"U","NORAD_CAT_ID":40732,"ELEMENT_SET_NO":999,"REV_AT_EPOCH":615,"BSTAR":0,"MEAN_MOTION_DOT":4.7e-7,"MEAN_MOTION_DDOT":0},{"OBJECT_NAME":"ELEKTRO-L 2","OBJECT_ID":"2015-074A","EPOCH":"2026-03-02T21:17:52.046880","MEAN_MOTION":1.00270708,"ECCENTRICITY":0.0003496,"INCLINATION":6.4268,"RA_OF_ASC_NODE":71.8299,"ARG_OF_PERICENTER":235.4549,"MEAN_ANOMALY":158.334,"EPHEMERIS_TYPE":0,"CLASSIFICATION_TYPE":"U","NORAD_CAT_ID":41105,"ELEMENT_SET_NO":999,"REV_AT_EPOCH":3744,"BSTAR":0,"MEAN_MOTION_DOT":-1.31e-6,"MEAN_MOTION_DDOT":0},{"OBJECT_NAME":"INSAT-3DR","OBJECT_ID":"2016-054A","EPOCH":"2026-03-03T02:26:49.344000","MEAN_MOTION":1.00272272,"ECCENTRICITY":0.0013355,"INCLINATION":0.0435,"RA_OF_ASC_NODE":97.3591,"ARG_OF_PERICENTER":184.238,"MEAN_ANOMALY":349.9514,"EPHEMERIS_TYPE":0,"CLASSIFICATION_TYPE":"U","NORAD_CAT_ID":41752,"ELEMENT_SET_NO":999,"REV_AT_EPOCH":3475,"BSTAR":0,"MEAN_MOTION_DOT":-9.2e-7,"MEAN_MOTION_DDOT":0},{"OBJECT_NAME":"HIMAWARI-9","OBJECT_ID":"2016-064A","EPOCH":"2026-03-02T20:00:38.439072","MEAN_MOTION":1.00272669,"ECCENTRICITY":0.00011273,"INCLINATION":0.017,"RA_OF_ASC_NODE":189.165,"ARG_OF_PERICENTER":171.7739,"MEAN_ANOMALY":240.5949,"EPHEMERIS_TYPE":0,"CLASSIFICATION_TYPE":"U","NORAD_CAT_ID":41836,"ELEMENT_SET_NO":999,"REV_AT_EPOCH":3414,"BSTAR":0,"MEAN_MOTION_DOT":-2.91e-6,"MEAN_MOTION_DDOT":0},{"OBJECT_NAME":"GOES 16","OBJECT_ID":"2016-071A","EPOCH":"2026-03-03T03:41:38.902272","MEAN_MOTION":1.00271628,"ECCENTRICITY":0.0002599,"INCLINATION":0.1441,"RA_OF_ASC_NODE":90.2185,"ARG_OF_PERICENTER":216.3842,"MEAN_ANOMALY":165.0243,"EPHEMERIS_TYPE":0,"CLASSIFICATION_TYPE":"U","NORAD_CAT_ID":41866,"ELEMENT_SET_NO":999,"REV_AT_EPOCH":3404,"BSTAR":0,"MEAN_MOTION_DOT":-1.06e-6,"MEAN_MOTION_DDOT":0},{"OBJECT_NAME":"FENGYUN 4A","OBJECT_ID":"2016-077A","EPOCH":"2026-03-03T07:49:03.459936","MEAN_MOTION":1.00280074,"ECCENTRICITY":0.0007352,"INCLINATION":2.0531,"RA_OF_ASC_NODE":81.4319,"ARG_OF_PERICENTER":135.1146,"MEAN_ANOMALY":185.3417,"EPHEMERIS_TYPE":0,"CLASSIFICATION_TYPE":"U","NORAD_CAT_ID":41882,"ELEMENT_SET_NO":999,"REV_AT_EPOCH":3386,"BSTAR":0,"MEAN_MOTION_DOT":-3.71e-6,"MEAN_MOTION_DDOT":0},{"OBJECT_NAME":"CYGFM05","OBJECT_ID":"2016-078A","EPOCH":"2026-03-02T21:09:57.088800","MEAN_MOTION":15.51768101,"ECCENTRICITY":0.0006933,"INCLINATION":34.9565,"RA_OF_ASC_NODE":242.0476,"ARG_OF_PERICENTER":227.0707,"MEAN_ANOMALY":132.9434,"EPHEMERIS_TYPE":0,"CLASSIFICATION_TYPE":"U","NORAD_CAT_ID":41884,"ELEMENT_SET_NO":999,"REV_AT_EPOCH":51220,"BSTAR":0.00045143,"MEAN_MOTION_DOT":0.00027874,"MEAN_MOTION_DDOT":0},{"OBJECT_NAME":"CYGFM04","OBJECT_ID":"2016-078B","EPOCH":"2026-03-02T18:05:00.596832","MEAN_MOTION":15.55134948,"ECCENTRICITY":0.0006069,"INCLINATION":34.9318,"RA_OF_ASC_NODE":215.2099,"ARG_OF_PERICENTER":259.5153,"MEAN_ANOMALY":100.4887,"EPHEMERIS_TYPE":0,"CLASSIFICATION_TYPE":"U","NORAD_CAT_ID":41885,"ELEMENT_SET_NO":999,"REV_AT_EPOCH":51238,"BSTAR":0.0004839244,"MEAN_MOTION_DOT":0.00033809,"MEAN_MOTION_DDOT":0},{"OBJECT_NAME":"CYGFM02","OBJECT_ID":"2016-078C","EPOCH":"2026-03-02T20:33:57.106944","MEAN_MOTION":15.57149529,"ECCENTRICITY":0.0007055,"INCLINATION":34.9405,"RA_OF_ASC_NODE":211.5722,"ARG_OF_PERICENTER":260.5677,"MEAN_ANOMALY":99.4249,"EPHEMERIS_TYPE":0,"CLASSIFICATION_TYPE":"U","NORAD_CAT_ID":41886,"ELEMENT_SET_NO":999,"REV_AT_EPOCH":51254,"BSTAR":0.00060564,"MEAN_MOTION_DOT":0.00045702,"MEAN_MOTION_DDOT":0},{"OBJECT_NAME":"CYGFM01","OBJECT_ID":"2016-078D","EPOCH":"2026-03-02T21:51:52.305120","MEAN_MOTION":15.52200156,"ECCENTRICITY":0.0006498,"INCLINATION":34.9394,"RA_OF_ASC_NODE":243.6807,"ARG_OF_PERICENTER":218.7493,"MEAN_ANOMALY":141.2764,"EPHEMERIS_TYPE":0,"CLASSIFICATION_TYPE":"U","NORAD_CAT_ID":41887,"ELEMENT_SET_NO":999,"REV_AT_EPOCH":51215,"BSTAR":0.00045806,"MEAN_MOTION_DOT":0.00028729,"MEAN_MOTION_DDOT":0},{"OBJECT_NAME":"CYGFM08","OBJECT_ID":"2016-078E","EPOCH":"2026-03-02T20:00:00.216576","MEAN_MOTION":15.5367104,"ECCENTRICITY":0.00081253,"INCLINATION":34.9427,"RA_OF_ASC_NODE":226.1438,"ARG_OF_PERICENTER":243.3728,"MEAN_ANOMALY":116.6163,"EPHEMERIS_TYPE":0,"CLASSIFICATION_TYPE":"U","NORAD_CAT_ID":41888,"ELEMENT_SET_NO":999,"REV_AT_EPOCH":51238,"BSTAR":0.00047772127,"MEAN_MOTION_DOT":0.00031637,"MEAN_MOTION_DDOT":0},{"OBJECT_NAME":"CYGFM07","OBJECT_ID":"2016-078G","EPOCH":"2026-03-02T19:16:14.956896","MEAN_MOTION":15.54357251,"ECCENTRICITY":0.00066827,"INCLINATION":34.9445,"RA_OF_ASC_NODE":214.8351,"ARG_OF_PERICENTER":263.2097,"MEAN_ANOMALY":96.7866,"EPHEMERIS_TYPE":0,"CLASSIFICATION_TYPE":"U","NORAD_CAT_ID":41890,"ELEMENT_SET_NO":999,"REV_AT_EPOCH":51240,"BSTAR":0.0004856975,"MEAN_MOTION_DOT":0.00032976,"MEAN_MOTION_DDOT":0},{"OBJECT_NAME":"CYGFM03","OBJECT_ID":"2016-078H","EPOCH":"2026-03-02T18:34:40.149984","MEAN_MOTION":15.54370064,"ECCENTRICITY":0.0005772,"INCLINATION":34.9401,"RA_OF_ASC_NODE":217.0068,"ARG_OF_PERICENTER":249.3234,"MEAN_ANOMALY":110.6871,"EPHEMERIS_TYPE":0,"CLASSIFICATION_TYPE":"U","NORAD_CAT_ID":41891,"ELEMENT_SET_NO":999,"REV_AT_EPOCH":51237,"BSTAR":0.00034714,"MEAN_MOTION_DOT":0.00023532,"MEAN_MOTION_DDOT":0},{"OBJECT_NAME":"FENGYUN 3D","OBJECT_ID":"2017-072A","EPOCH":"2026-03-03T05:20:52.586304","MEAN_MOTION":14.19712696,"ECCENTRICITY":0.0001898,"INCLINATION":99.0011,"RA_OF_ASC_NODE":34.7925,"ARG_OF_PERICENTER":26.3204,"MEAN_ANOMALY":333.8067,"EPHEMERIS_TYPE":0,"CLASSIFICATION_TYPE":"U","NORAD_CAT_ID":43010,"ELEMENT_SET_NO":999,"REV_AT_EPOCH":42995,"BSTAR":6.5913e-5,"MEAN_MOTION_DOT":9.3e-7,"MEAN_MOTION_DDOT":0},{"OBJECT_NAME":"NOAA 20 (JPSS-1)","OBJECT_ID":"2017-073A","EPOCH":"2026-03-03T03:10:30.528192","MEAN_MOTION":14.1953398,"ECCENTRICITY":9.0e-5,"INCLINATION":98.7685,"RA_OF_ASC_NODE":2.5849,"ARG_OF_PERICENTER":145.6534,"MEAN_ANOMALY":214.47,"EPHEMERIS_TYPE":0,"CLASSIFICATION_TYPE":"U","NORAD_CAT_ID":43013,"ELEMENT_SET_NO":999,"REV_AT_EPOCH":42942,"BSTAR":5.9529e-5,"MEAN_MOTION_DOT":8.1e-7,"MEAN_MOTION_DDOT":0},{"OBJECT_NAME":"GOES 17","OBJECT_ID":"2018-022A","EPOCH":"2026-03-03T03:33:38.719584","MEAN_MOTION":1.00270443,"ECCENTRICITY":0.0002322,"INCLINATION":0.6649,"RA_OF_ASC_NODE":87.5818,"ARG_OF_PERICENTER":219.7732,"MEAN_ANOMALY":177.466,"EPHEMERIS_TYPE":0,"CLASSIFICATION_TYPE":"U","NORAD_CAT_ID":43226,"ELEMENT_SET_NO":999,"REV_AT_EPOCH":2936,"BSTAR":0,"MEAN_MOTION_DOT":-1.98e-6,"MEAN_MOTION_DDOT":0},{"OBJECT_NAME":"FENGYUN 2H","OBJECT_ID":"2018-050A","EPOCH":"2026-03-03T02:28:11.711712","MEAN_MOTION":1.00272569,"ECCENTRICITY":0.0001989,"INCLINATION":2.7571,"RA_OF_ASC_NODE":80.37,"ARG_OF_PERICENTER":173.3681,"MEAN_ANOMALY":23.24,"EPHEMERIS_TYPE":0,"CLASSIFICATION_TYPE":"U","NORAD_CAT_ID":43491,"ELEMENT_SET_NO":999,"REV_AT_EPOCH":2837,"BSTAR":0,"MEAN_MOTION_DOT":-1.42e-6,"MEAN_MOTION_DDOT":0}]
